start=new Date('2023-04-15T00:00:00.000Z').valueOf();
sats=[{"FILE":"3887333","DECAY_DATE":null,"REV_AT_EPOCH":"10465","OBJECT_TYPE":"PAYLOAD","MEAN_MOTION":"15.06393592","CENTER_NAME":"EARTH","TLE_LINE2":"2 48688  53.0512 146.7574 0000857  57.7882 302.3189 15.06393592104658","GP_ID":"230057257","EPOCH":"2023-04-14T07:55:33.981024","NORAD_CAT_ID":"48688","EPHEMERIS_TYPE":"0","MEAN_MOTION_DDOT":"0.0000000000000","RCS_SIZE":"LARGE","MEAN_ELEMENT_THEORY":"SGP4","ELEMENT_SET_NO":"999","PERIAPSIS":"546.640","OBJECT_ID":"2021-044BC","REF_FRAME":"TEME","TIME_SYSTEM":"UTC","BSTAR":"0.00028731000000","MEAN_MOTION_DOT":"0.00004000","LAUNCH_DATE":"2021-05-26","INCLINATION":"53.0512","SITE":"AFETR","COUNTRY_CODE":"US","CLASSIFICATION_TYPE":"U","MEAN_ANOMALY":"302.3189","ARG_OF_PERICENTER":"57.7882","SEMIMAJOR_AXIS":"6925.368","OBJECT_NAME":"STARLINK-2742","APOAPSIS":"547.827","PERIOD":"95.593","ECCENTRICITY":"0.00008570","TLE_LINE1":"1 48688U 21044BC  23104.33025441  .00004000  00000-0  28731-3 0  9995","RA_OF_ASC_NODE":"146.7574"},{"PERIAPSIS":"546.313","ELEMENT_SET_NO":"999","MEAN_ELEMENT_THEORY":"SGP4","RCS_SIZE":"LARGE","MEAN_MOTION_DDOT":"0.0000000000000","EPOCH":"2023-04-14T09:38:23.859456","NORAD_CAT_ID":"48689","EPHEMERIS_TYPE":"0","GP_ID":"230056005","CENTER_NAME":"EARTH","TLE_LINE2":"2 48689  53.0520 151.4053 0001322  97.6377 262.4762 15.06395241104592","REV_AT_EPOCH":"10459","MEAN_MOTION":"15.06395241","OBJECT_TYPE":"PAYLOAD","DECAY_DATE":null,"FILE":"3887333","ECCENTRICITY":"0.00013220","RA_OF_ASC_NODE":"151.4053","TLE_LINE1":"1 48689U 21044BD  23104.40166504  .00003920  00000-0  28196-3 0  9995","SEMIMAJOR_AXIS":"6925.363","OBJECT_NAME":"STARLINK-2617","ARG_OF_PERICENTER":"97.6377","APOAPSIS":"548.144","PERIOD":"95.592","COUNTRY_CODE":"US","MEAN_ANOMALY":"262.4762","CLASSIFICATION_TYPE":"U","INCLINATION":"53.0520","SITE":"AFETR","LAUNCH_DATE":"2021-05-26","BSTAR":"0.00028196000000","MEAN_MOTION_DOT":"0.00003920","TIME_SYSTEM":"UTC","REF_FRAME":"TEME","OBJECT_ID":"2021-044BD"},{"LAUNCH_DATE":"2021-05-26","BSTAR":"0.00069954000000","MEAN_MOTION_DOT":"0.00010154","TIME_SYSTEM":"UTC","REF_FRAME":"TEME","OBJECT_ID":"2021-044BE","RA_OF_ASC_NODE":"160.8104","TLE_LINE1":"1 48690U 21044BE  23104.54083483  .00010154  00000-0  69954-3 0  9990","ECCENTRICITY":"0.00012290","PERIOD":"95.592","APOAPSIS":"548.063","OBJECT_NAME":"STARLINK-2740","SEMIMAJOR_AXIS":"6925.346","ARG_OF_PERICENTER":"82.8573","MEAN_ANOMALY":"277.2555","CLASSIFICATION_TYPE":"U","COUNTRY_CODE":"US","SITE":"AFETR","INCLINATION":"53.0512","GP_ID":"230056255","TLE_LINE2":"2 48690  53.0512 160.8104 0001229  82.8573 277.2555 15.06400682104473","CENTER_NAME":"EARTH","MEAN_MOTION":"15.06400682","OBJECT_TYPE":"PAYLOAD","REV_AT_EPOCH":"10447","DECAY_DATE":null,"FILE":"3887333","PERIAPSIS":"546.360","ELEMENT_SET_NO":"999","MEAN_ELEMENT_THEORY":"SGP4","RCS_SIZE":"LARGE","MEAN_MOTION_DDOT":"0.0000000000000","EPHEMERIS_TYPE":"0","NORAD_CAT_ID":"48690","EPOCH":"2023-04-14T12:58:48.129312"},{"REV_AT_EPOCH":"10453","OBJECT_TYPE":"PAYLOAD","MEAN_MOTION":"15.06388018","DECAY_DATE":null,"FILE":"3887333","GP_ID":"230057508","CENTER_NAME":"EARTH","TLE_LINE2":"2 48691  53.0526 156.2322 0001256 102.2404 257.8725 15.06388018104538","MEAN_MOTION_DDOT":"0.0000000000000","NORAD_CAT_ID":"48691","EPOCH":"2023-04-14T10:44:05.419680","EPHEMERIS_TYPE":"0","PERIAPSIS":"546.380","ELEMENT_SET_NO":"999","MEAN_ELEMENT_THEORY":"SGP4","RCS_SIZE":"LARGE","TIME_SYSTEM":"UTC","REF_FRAME":"TEME","OBJECT_ID":"2021-044BF","LAUNCH_DATE":"2021-05-26","BSTAR":"0.00148390000000","MEAN_MOTION_DOT":"0.00021883","COUNTRY_CODE":"US","CLASSIFICATION_TYPE":"U","MEAN_ANOMALY":"257.8725","INCLINATION":"53.0526","SITE":"AFETR","ECCENTRICITY":"0.00012560","RA_OF_ASC_NODE":"156.2322","TLE_LINE1":"1 48691U 21044BF  23104.44728495  .00021883  00000-0  14839-2 0  9991","OBJECT_NAME":"STARLINK-2750","SEMIMAJOR_AXIS":"6925.385","ARG_OF_PERICENTER":"102.2404","APOAPSIS":"548.120","PERIOD":"95.593"},{"MEAN_MOTION_DDOT":"0.0000000000000","NORAD_CAT_ID":"48692","EPOCH":"2023-04-14T10:22:50.894400","EPHEMERIS_TYPE":"0","PERIAPSIS":"546.518","ELEMENT_SET_NO":"999","MEAN_ELEMENT_THEORY":"SGP4","RCS_SIZE":"LARGE","REV_AT_EPOCH":"10453","OBJECT_TYPE":"PAYLOAD","MEAN_MOTION":"15.06355944","DECAY_DATE":null,"FILE":"3887333","GP_ID":"230057759","CENTER_NAME":"EARTH","TLE_LINE2":"2 48692  53.0524 156.4223 0001200  93.6991 266.4135 15.06355944104535","COUNTRY_CODE":"US","CLASSIFICATION_TYPE":"U","MEAN_ANOMALY":"266.4135","INCLINATION":"53.0524","SITE":"AFETR","ECCENTRICITY":"0.00012000","RA_OF_ASC_NODE":"156.4223","TLE_LINE1":"1 48692U 21044BG  23104.43253350  .00017148  00000-0  11687-2 0  9991","OBJECT_NAME":"STARLINK-2752","SEMIMAJOR_AXIS":"6925.484","ARG_OF_PERICENTER":"93.6991","PERIOD":"95.595","APOAPSIS":"548.180","TIME_SYSTEM":"UTC","REF_FRAME":"TEME","OBJECT_ID":"2021-044BG","LAUNCH_DATE":"2021-05-26","BSTAR":"0.00116870000000","MEAN_MOTION_DOT":"0.00017148"},{"ECCENTRICITY":"0.00011830","RA_OF_ASC_NODE":"161.2585","TLE_LINE1":"1 48693U 21044BH  23104.44035136  .00022730  00000-0  15402-2 0  9995","SEMIMAJOR_AXIS":"6925.371","OBJECT_NAME":"STARLINK-2618","ARG_OF_PERICENTER":"84.4386","APOAPSIS":"548.055","PERIOD":"95.593","COUNTRY_CODE":"US","CLASSIFICATION_TYPE":"U","MEAN_ANOMALY":"275.6738","INCLINATION":"53.0532","SITE":"AFETR","LAUNCH_DATE":"2021-05-26","MEAN_MOTION_DOT":"0.00022730","BSTAR":"0.00154020000000","TIME_SYSTEM":"UTC","REF_FRAME":"TEME","OBJECT_ID":"2021-044BH","PERIAPSIS":"546.417","ELEMENT_SET_NO":"999","MEAN_ELEMENT_THEORY":"SGP4","RCS_SIZE":"LARGE","MEAN_MOTION_DDOT":"0.0000000000000","EPOCH":"2023-04-14T10:34:06.357504","NORAD_CAT_ID":"48693","EPHEMERIS_TYPE":"0","GP_ID":"230056506","CENTER_NAME":"EARTH","TLE_LINE2":"2 48693  53.0532 161.2585 0001183  84.4386 275.6738 15.06392631104463","REV_AT_EPOCH":"10446","OBJECT_TYPE":"PAYLOAD","MEAN_MOTION":"15.06392631","DECAY_DATE":null,"FILE":"3887333"},{"ECCENTRICITY":"0.00011880","RA_OF_ASC_NODE":"164.3093","TLE_LINE1":"1 48694U 21044BJ  23104.87299748  .00037458  00000-0  25172-2 0  9992","OBJECT_NAME":"STARLINK-2748","SEMIMAJOR_AXIS":"6925.210","ARG_OF_PERICENTER":"86.0980","APOAPSIS":"547.898","PERIOD":"95.589","COUNTRY_CODE":"US","MEAN_ANOMALY":"274.0145","CLASSIFICATION_TYPE":"U","INCLINATION":"53.0515","SITE":"AFETR","LAUNCH_DATE":"2021-05-26","BSTAR":"0.00251720000000","MEAN_MOTION_DOT":"0.00037458","TIME_SYSTEM":"UTC","REF_FRAME":"TEME","OBJECT_ID":"2021-044BJ","PERIAPSIS":"546.252","ELEMENT_SET_NO":"999","MEAN_ELEMENT_THEORY":"SGP4","RCS_SIZE":"LARGE","MEAN_MOTION_DDOT":"0.0000000000000","EPOCH":"2023-04-14T20:57:06.982272","NORAD_CAT_ID":"48694","EPHEMERIS_TYPE":"0","GP_ID":"230067114","CENTER_NAME":"EARTH","TLE_LINE2":"2 48694  53.0515 164.3093 0001188  86.0980 274.0145 15.06445225105291","REV_AT_EPOCH":"10529","OBJECT_TYPE":"PAYLOAD","MEAN_MOTION":"15.06445225","DECAY_DATE":null,"FILE":"3887559"},{"MEAN_MOTION_DOT":"0.00023708","BSTAR":"0.00160580000000","LAUNCH_DATE":"2021-05-26","REF_FRAME":"TEME","OBJECT_ID":"2021-044BK","TIME_SYSTEM":"UTC","APOAPSIS":"548.166","PERIOD":"95.593","SEMIMAJOR_AXIS":"6925.396","OBJECT_NAME":"STARLINK-2616","ARG_OF_PERICENTER":"88.2961","RA_OF_ASC_NODE":"166.3508","TLE_LINE1":"1 48695U 21044BK  23104.43162462  .00023708  00000-0  16058-2 0  9993","ECCENTRICITY":"0.00013070","SITE":"AFETR","INCLINATION":"53.0515","MEAN_ANOMALY":"271.8178","CLASSIFICATION_TYPE":"U","COUNTRY_CODE":"US","TLE_LINE2":"2 48695  53.0515 166.3508 0001307  88.2961 271.8178 15.06384581104399","CENTER_NAME":"EARTH","GP_ID":"230057007","DECAY_DATE":null,"FILE":"3887333","OBJECT_TYPE":"PAYLOAD","MEAN_MOTION":"15.06384581","REV_AT_EPOCH":"10439","MEAN_ELEMENT_THEORY":"SGP4","RCS_SIZE":"LARGE","PERIAPSIS":"546.356","ELEMENT_SET_NO":"999","EPHEMERIS_TYPE":"0","NORAD_CAT_ID":"48695","EPOCH":"2023-04-14T10:21:32.367168","MEAN_MOTION_DDOT":"0.0000000000000"},{"OBJECT_NAME":"STARLINK-2753","SEMIMAJOR_AXIS":"6925.350","ARG_OF_PERICENTER":"99.6350","PERIOD":"95.592","APOAPSIS":"548.080","ECCENTRICITY":"0.00012490","RA_OF_ASC_NODE":"170.7982","TLE_LINE1":"1 48696U 21044BL  23104.55464992  .00019009  00000-0  12916-2 0  9998","INCLINATION":"53.0511","SITE":"AFETR","COUNTRY_CODE":"US","MEAN_ANOMALY":"260.4780","CLASSIFICATION_TYPE":"U","MEAN_MOTION_DOT":"0.00019009","BSTAR":"0.00129160000000","LAUNCH_DATE":"2021-05-26","REF_FRAME":"TEME","OBJECT_ID":"2021-044BL","TIME_SYSTEM":"UTC","MEAN_ELEMENT_THEORY":"SGP4","RCS_SIZE":"LARGE","PERIAPSIS":"546.350","ELEMENT_SET_NO":"999","NORAD_CAT_ID":"48696","EPOCH":"2023-04-14T13:18:41.753088","EPHEMERIS_TYPE":"0","MEAN_MOTION_DDOT":"0.0000000000000","CENTER_NAME":"EARTH","TLE_LINE2":"2 48696  53.0511 170.7982 0001249  99.6350 260.4780 15.06399459105185","GP_ID":"230034879","DECAY_DATE":null,"FILE":"3887322","REV_AT_EPOCH":"10518","MEAN_MOTION":"15.06399459","OBJECT_TYPE":"PAYLOAD"},{"TIME_SYSTEM":"UTC","REF_FRAME":"TEME","OBJECT_ID":"2021-044BM","LAUNCH_DATE":"2021-05-26","BSTAR":"0.00049323000000","MEAN_MOTION_DOT":"0.00007076","MEAN_ANOMALY":"220.0067","CLASSIFICATION_TYPE":"U","COUNTRY_CODE":"US","SITE":"AFETR","INCLINATION":"53.0525","RA_OF_ASC_NODE":"169.1336","TLE_LINE1":"1 48697U 21044BM  23104.91585957  .00007076  00000-0  49323-3 0  9998","ECCENTRICITY":"0.00012680","APOAPSIS":"548.047","PERIOD":"95.591","SEMIMAJOR_AXIS":"6925.304","OBJECT_NAME":"STARLINK-2715","ARG_OF_PERICENTER":"140.1015","OBJECT_TYPE":"PAYLOAD","MEAN_MOTION":"15.06414582","REV_AT_EPOCH":"10523","DECAY_DATE":null,"FILE":"3887518","GP_ID":"230066123","TLE_LINE2":"2 48697  53.0525 169.1336 0001268 140.1015 220.0067 15.06414582105238","CENTER_NAME":"EARTH","MEAN_MOTION_DDOT":"0.0000000000000","EPHEMERIS_TYPE":"0","NORAD_CAT_ID":"48697","EPOCH":"2023-04-14T21:58:50.266848","PERIAPSIS":"546.291","ELEMENT_SET_NO":"999","MEAN_ELEMENT_THEORY":"SGP4","RCS_SIZE":"LARGE"}];
